OBJECT_NAME,OBJECT_ID,EPOCH,MEAN_MOTION,ECCENTRICITY,INCLINATION,RA_OF_ASC_NODE,ARG_OF_PERICENTER,MEAN_ANOMALY,EPHEMERIS_TYPE,CLASSIFICATION_TYPE,NORAD_CAT_ID,ELEMENT_SET_NO,REV_AT_EPOCH,BSTAR,MEAN_MOTION_DOT,MEAN_MOTION_DDOT
STARLINK-2160,2021-017AA,2022-05-16T20:24:58.905792,15.06397974,.0001439,53.0567,344.3153,72.2146,287.9000,0,U,47746,999,6778,.15828E-4,-.46E-6,0
STARLINK-2161,2021-017AB,2022-05-16T20:21:00.316512,15.06393696,.0001607,53.0537,334.3293,67.1121,293.0038,0,U,47747,999,6796,-.58597E-4,-.1154E-4,0
STARLINK-2162,2021-017AC,2022-05-16T20:10:23.696256,15.06392030,.00016,53.0552,334.3651,58.2576,301.8569,0,U,47748,999,6793,.10233E-4,-.129E-5,0
STARLINK-2163,2021-017AD,2022-05-16T14:09:28.240416,15.06391835,.000123,53.0544,335.4909,70.0158,290.0964,0,U,47749,999,6726,-.60538E-4,-.1183E-4,0
STARLINK-2164,2021-017AE,2022-05-16T23:10:50.927808,15.06398280,.0001475,53.0531,333.8110,68.1359,291.9787,0,U,47750,999,6732,.14197E-4,-.7E-6,0
STARLINK-2168,2021-017AF,2022-05-16T19:08:00.945024,15.06402607,.0001663,53.0562,324.5450,68.9374,291.1793,0,U,47751,999,6807,.19144E-3,.2571E-4,0
STARLINK-2169,2021-017AG,2022-05-16T19:56:27.028032,15.06403522,.0001499,53.0545,339.4096,68.8754,291.2395,0,U,47752,999,6791,.11822E-3,.148E-4,0
STARLINK-2170,2021-017AH,2022-05-17T00:07:54.991776,15.06393370,.0001603,53.0553,343.6306,69.8237,290.2924,0,U,47753,999,6718,.80297E-4,.914E-5,0
STARLINK-2171,2021-017AJ,2022-05-16T20:14:22.292448,15.06398872,.0001567,53.0541,344.3648,56.9090,303.2049,0,U,47754,999,6780,.19936E-3,.2689E-4,0
STARLINK-2174,2021-017AL,2022-05-16T20:09:03.523104,15.06391496,.0001476,53.0548,344.3743,73.3684,286.7467,0,U,47756,999,6784,-.59502E-4,-.1167E-4,0
STARLINK-2175,2021-017AM,2022-05-17T02:09:59.542272,15.06397799,.0001727,53.0541,343.2534,62.5294,297.5870,0,U,47757,999,6720,-.14235E-3,-.2401E-4,0
STARLINK-2178,2021-017AQ,2022-05-16T23:45:21.337920,15.06397281,.0001642,53.0562,353.6978,55.4188,304.6956,0,U,47760,999,6704,.11121E-4,-.116E-5,0
STARLINK-2179,2021-017AR,2022-05-16T19:42:32.002272,15.06403381,.0001374,53.0536,344.4594,83.9986,276.1160,0,U,47761,999,6779,.46864E-4,.417E-5,0
STARLINK-2180,2021-017AS,2022-05-16T21:54:31.542048,15.06395052,.0001815,53.0561,359.0494,51.4610,308.6541,0,U,47762,999,6761,.38162E-4,.287E-5,0
STARLINK-2181,2021-017AT,2022-05-16T20:42:53.853120,15.06397181,.0001829,53.0547,349.2746,70.7978,289.3209,0,U,47763,999,6772,.71291E-4,.78E-5,0
STARLINK-2182,2021-017AU,2022-05-16T21:34:38.920512,15.06398346,.0001452,53.0560,359.1044,59.1471,300.9661,0,U,47764,999,6764,.40293E-4,.319E-5,0
STARLINK-2184,2021-017AW,2022-05-17T02:47:48.602400,15.06392584,.0001752,53.0556,358.1291,52.1825,307.9322,0,U,47766,999,6699,-.38141E-4,-.85E-5,0
STARLINK-2185,2021-017AX,2022-05-16T21:02:08.741184,15.06390011,.0001502,53.0552,344.2045,65.6362,294.4783,0,U,47767,999,6785,.41712E-4,.34E-5,0
STARLINK-2189,2021-017AY,2022-05-16T21:06:45.050112,15.06400394,.0001954,53.0564,359.1958,59.3232,300.7949,0,U,47768,999,6761,.15142E-3,.1974E-4,0
STARLINK-2192,2021-017AZ,2022-05-16T19:02:42.638784,15.06399861,.000163,53.0562,324.5701,56.8935,303.2210,0,U,47769,999,6811,.87568E-5,-.151E-5,0
STARLINK-2193,2021-017BA,2022-05-16T20:49:32.088864,15.06397274,.0001608,53.0531,339.2471,58.9130,301.2016,0,U,47770,999,6789,.3137E-4,.186E-5,0
STARLINK-2194,2021-017BB,2022-05-16T22:40:59.755584,15.06393312,.0001445,53.0546,338.9012,66.0391,294.0750,0,U,47771,999,6725,-.73181E-4,-.1371E-4,0
STARLINK-2195,2021-017BC,2022-05-16T20:50:11.923584,15.06397865,.0001854,53.0563,354.2405,63.2130,296.9048,0,U,47772,999,6766,.1305E-3,.1663E-4,0
STARLINK-2196,2021-017BD,2022-05-16T20:44:53.706336,15.06392242,.0001621,53.0552,354.2615,59.6084,300.5065,0,U,47773,999,6765,.83996E-4,.97E-5,0
STARLINK-2197,2021-017BE,2022-05-16T20:39:35.095104,15.06393939,.0001437,53.0570,354.2761,57.6601,302.4527,0,U,47774,999,6766,.50558E-4,.472E-5,0
STARLINK-2198,2021-017BF,2022-05-16T20:55:29.522208,15.06401503,.0001264,53.0551,354.2189,70.9838,289.1288,0,U,47775,999,6771,.3979E-4,.311E-5,0
STARLINK-2209,2021-017BG,2022-05-17T00:45:04.048704,15.06396449,.0001819,53.0543,343.5061,68.3407,291.7776,0,U,47776,999,6719,.66711E-3,.9668E-4,0
STARLINK-2210,2021-017BH,2022-05-16T20:03:45.457056,15.06392798,.0001677,53.0557,344.3929,55.8726,304.2422,0,U,47777,999,6781,-.3516E-5,-.334E-5,0
STARLINK-2211,2021-017BJ,2022-05-16T20:51:31.356288,15.06394479,.0001363,53.0552,344.2280,69.4361,290.6774,0,U,47778,999,6781,-.48053E-4,-.997E-5,0
STARLINK-2212,2021-017BK,2022-05-16T19:42:15.660576,15.12793529,.0001576,53.0569,334.7356,119.8458,240.2691,0,U,47779,999,6795,-.12486E-2,-.22402E-3,0
