STARLINK-2160           
1 47746U 21017AA  22136.85068178 -.00000046  00000+0  15828-4 0  9994
2 47746  53.0567 344.3153 0001439  72.2146 287.9000 15.06397974 67783
STARLINK-2161           
1 47747U 21017AB  22136.84792033 -.00001154  00000+0 -58597-4 0  9990
2 47747  53.0537 334.3293 0001607  67.1121 293.0038 15.06393696 67964
STARLINK-2162           
1 47748U 21017AC  22136.84055204 -.00000129  00000+0  10233-4 0  9998
2 47748  53.0552 334.3651 0001600  58.2576 301.8569 15.06392030 67933
STARLINK-2163           
1 47749U 21017AD  22136.58991019 -.00001183  00000+0 -60538-4 0  9998
2 47749  53.0544 335.4909 0001230  70.0158 290.0964 15.06391835 67266
STARLINK-2164           
1 47750U 21017AE  22136.96586722 -.00000070  00000+0  14197-4 0  9996
2 47750  53.0531 333.8110 0001475  68.1359 291.9787 15.06398280 67323
STARLINK-2168           
1 47751U 21017AF  22136.79723316  .00002571  00000+0  19144-3 0  9993
2 47751  53.0562 324.5450 0001663  68.9374 291.1793 15.06402607 68077
STARLINK-2169           
1 47752U 21017AG  22136.83086838  .00001480  00000+0  11822-3 0  9993
2 47752  53.0545 339.4096 0001499  68.8754 291.2395 15.06403522 67916
STARLINK-2170           
1 47753U 21017AH  22137.00549759  .00000914  00000+0  80297-4 0  9994
2 47753  53.0553 343.6306 0001603  69.8237 290.2924 15.06393370 67186
STARLINK-2171           
1 47754U 21017AJ  22136.84331357  .00002689  00000+0  19936-3 0  9991
2 47754  53.0541 344.3648 0001567  56.9090 303.2049 15.06398872 67808
STARLINK-2174           
1 47756U 21017AL  22136.83962411 -.00001167  00000+0 -59502-4 0  9999
2 47756  53.0548 344.3743 0001476  73.3684 286.7467 15.06391496 67842
STARLINK-2175           
1 47757U 21017AM  22137.09027248 -.00002401  00000+0 -14235-3 0  9994
2 47757  53.0541 343.2534 0001727  62.5294 297.5870 15.06397799 67208
STARLINK-2178           
1 47760U 21017AQ  22136.98983030 -.00000116  00000+0  11121-4 0  9997
2 47760  53.0562 353.6978 0001642  55.4188 304.6956 15.06397281 67044
STARLINK-2179           
1 47761U 21017AR  22136.82120373  .00000417  00000+0  46864-4 0  9999
2 47761  53.0536 344.4594 0001374  83.9986 276.1160 15.06403381 67793
STARLINK-2180           
1 47762U 21017AS  22136.91286507  .00000287  00000+0  38162-4 0  9999
2 47762  53.0561 359.0494 0001815  51.4610 308.6541 15.06395052 67617
STARLINK-2181           
1 47763U 21017AT  22136.86312330  .00000780  00000+0  71291-4 0  9996
2 47763  53.0547 349.2746 0001829  70.7978 289.3209 15.06397181 67722
STARLINK-2182           
1 47764U 21017AU  22136.89906158  .00000319  00000+0  40293-4 0  9993
2 47764  53.0560 359.1044 0001452  59.1471 300.9661 15.06398346 67647
STARLINK-2184           
1 47766U 21017AW  22137.11653475 -.00000850  00000+0 -38141-4 0  9993
2 47766  53.0556 358.1291 0001752  52.1825 307.9322 15.06392584 66992
STARLINK-2185           
1 47767U 21017AX  22136.87649006  .00000340  00000+0  41712-4 0  9991
2 47767  53.0552 344.2045 0001502  65.6362 294.4783 15.06390011 67850
STARLINK-2189           
1 47768U 21017AY  22136.87968808  .00001974  00000+0  15142-3 0  9997
2 47768  53.0564 359.1958 0001954  59.3232 300.7949 15.06400394 67614
STARLINK-2192           
1 47769U 21017AZ  22136.79354906 -.00000151  00000+0  87568-5 0  9997
2 47769  53.0562 324.5701 0001630  56.8935 303.2210 15.06399861 68119
STARLINK-2193           
1 47770U 21017BA  22136.86773251  .00000186  00000+0  31370-4 0  9991
2 47770  53.0531 339.2471 0001608  58.9130 301.2016 15.06397274 67891
STARLINK-2194           
1 47771U 21017BB  22136.94513606 -.00001371  00000+0 -73181-4 0  9992
2 47771  53.0546 338.9012 0001445  66.0391 294.0750 15.06393312 67256
STARLINK-2195           
1 47772U 21017BC  22136.86819356  .00001663  00000+0  13050-3 0  9995
2 47772  53.0563 354.2405 0001854  63.2130 296.9048 15.06397865 67660
STARLINK-2196           
1 47773U 21017BD  22136.86451049  .00000970  00000+0  83996-4 0  9994
2 47773  53.0552 354.2615 0001621  59.6084 300.5065 15.06392242 67655
STARLINK-2197           
1 47774U 21017BE  22136.86082286  .00000472  00000+0  50558-4 0  9993
2 47774  53.0570 354.2761 0001437  57.6601 302.4527 15.06393939 67665
STARLINK-2198           
1 47775U 21017BF  22136.87186947  .00000311  00000+0  39790-4 0  9991
2 47775  53.0551 354.2189 0001264  70.9838 289.1288 15.06401503 67715
STARLINK-2209           
1 47776U 21017BG  22137.03129686  .00009668  00000+0  66711-3 0  9994
2 47776  53.0543 343.5061 0001819  68.3407 291.7776 15.06396449 67191
STARLINK-2210           
1 47777U 21017BH  22136.83594279 -.00000334  00000+0 -35160-5 0  9995
2 47777  53.0557 344.3929 0001677  55.8726 304.2422 15.06392798 67816
STARLINK-2211           
1 47778U 21017BJ  22136.86911292 -.00000997  00000+0 -48053-4 0  9996
2 47778  53.0552 344.2280 0001363  69.4361 290.6774 15.06394479 67815
STARLINK-2212           
1 47779U 21017BK  22136.82101459 -.00022402  00000+0 -12486-2 0  9993
2 47779  53.0569 334.7356 0001576 119.8458 240.2691 15.12793529 67955
